CZ-4B R/B               
1 28415U 04035C   25304.61906157  .00010822  00000+0  41082-3 0  9991
2 28415  97.3677 335.5418 0035775  67.3346 293.1669 15.26400137160200
CZ-2C R/B               
1 28480U 04046B   25304.67574762  .00000221  00000+0  97025-4 0  9995
2 28480  98.1946 222.6772 0139552 175.8946 184.3416 14.26912805 90109
ARIANE 5 R/B            
1 28499U 04049H   25304.40350598  .00001206  00000+0  13982-3 0  9991
2 28499  98.2508 103.1774 0085733  50.6229 310.2538 14.84883241126609
CZ-2D R/B               
1 28738U 05024B   25304.54865483  .00033353  00000+0  58633-3 0  9990
2 28738  97.3683 310.9703 0007793 122.1767 238.0242 15.50393911119718
ALOS (DAICHI)           
1 28931U 06002A   25304.67988944  .00002404  00000+0  41590-3 0  9991
2 28931  98.1018 256.4857 0001660  54.1651 305.9708 14.69275297 54535
H-2A R/B                
1 28932U 06002B   25304.35384889  .00010513  00000+0  57081-3 0  9997
2 28932  98.2287  75.6899 0055021 321.6142  38.1178 15.13430222 74853
RESURS-DK 1             
1 29228U 06021A   25304.48985058  .00003891  00000+0  23332-3 0  9999
2 29228  69.9335 210.9930 0007185 293.4231  66.6178 15.11814555 67990
CZ-4B R/B               
1 29507U 06046C   25304.64588932  .00007007  00000+0  37070-3 0  9991
2 29507  97.5809 344.9011 0034313 357.2645   2.8394 15.15257520 40497
CZ-2C R/B               
1 31114U 07010B   25304.58782259  .00000192  00000+0  10755-3 0  9990
2 31114  98.3951  59.3662 0058096 310.3155  49.2954 14.20184377961392
COSMO-SKYMED 1          
1 31598U 07023A   25304.63677574  .00004174  00000+0  38406-3 0  9996
2 31598  97.8862 129.7708 0001026  83.3379 276.7958 14.95308472995600
COSMOS 2428             
1 31792U 07029A   25304.61360513 -.00000205  00000+0 -84403-4 0  9990
2 31792  70.9364 114.3202 0001752 112.0616 248.0692 14.12892889945863
SL-16 R/B               
1 31793U 07029B   25304.68113354 -.00000046  00000+0  11754-5 0  9999
2 31793  70.9740  83.5633 0002403 260.4341 190.8810 14.14803487947129
KORONAS-FOTON           
1 33504U 09003A   25304.33831880  .00017448  00000+0  43821-3 0  9999
2 33504  82.4325  49.9845 0010654 260.9479  99.0561 15.39801570925817
CZ-2C R/B               
1 37731U 11030B   25304.65190244  .00002424  00000+0  31426-3 0  9991
2 37731  97.8337 259.7138 0054451  51.3587 120.9916 14.80672923770995
H-2A R/B                
1 38341U 12025E   25304.58586953  .00004922  00000+0  45844-3 0  9996
2 38341  98.4520 256.5971 0046238  16.6614 343.6111 14.93988655728937
SHIJIAN-16 (SJ-16)      
1 39358U 13057A   25304.69009829  .00003614  00000+0  36055-3 0  9996
2 39358  74.9727  69.2007 0016028  63.7677 296.5157 14.91753252652268
SL-4 R/B                
1 39679U 14021B   25304.06205950  .00023116  00000+0  56698-3 0  9992
2 39679  51.6072 247.7604 0105079 352.4116   7.5271 15.35028480636330
ALOS-2                  
1 39766U 14029A   25304.67534325  .00002785  00000+0  37970-3 0  9996
2 39766  97.9230  40.1195 0001135 100.7510 259.3829 14.79464399617791
YAOGAN-29               
1 41038U 15069A   25304.64532450  .00000688  00000+0  91821-4 0  9996
2 41038  98.0266 327.6723 0002697  68.8751 291.2751 14.82811425536757
ASTRO-H (HITOMI)        
1 41337U 16012A   25303.83154963  .00004569  00000+0  27635-3 0  9999
2 41337  30.9985 113.9034 0009834 106.3070 253.8650 15.08960943532594
HXMT (HUIYAN)           
1 42758U 17034A   25304.68740685  .00008812  00000+0  46218-3 0  9991
2 42758  43.0158  12.8717 0032130 141.7402 218.5733 15.15556910462956
CZ-2C R/B               
1 43521U 18054D   25304.56207461  .00090971  00000+0  86189-3 0  9998
2 43521  35.1350 104.9535 0025170  94.6438 265.7167 15.65261438408423
SAOCOM 1A               
1 43641U 18076A   25304.68033762  .00000666  00000+0  90181-4 0  9999
2 43641  97.8874 129.7107 0001338  90.1551 269.9815 14.82141550382257
H-2A R/B                
1 43682U 18084L   25304.55307978  .00023636  00000+0  68107-3 0  9996
2 43682  98.8815 129.9594 0029410 109.2685 251.1739 15.35320566385921
SAOCOM 1B               
1 46265U 20059A   25304.71160534  .00000697  00000+0  94057-4 0  9990
2 46265  97.8862 128.8445 0001352  88.8713 271.2655 14.82165452279647
CSS (TIANHE)            
1 48274U 21035A   25304.63956564  .00036475  00000+0  43842-3 0  9992
2 48274  41.4665 272.4120 0006876 299.7035  60.3118 15.60102454257453
COSMOS 2550             
1 48865U 21056A   25304.60196171  .00000710  00000+0  27401-4 0  9995
2 48865  67.1411  71.4478 0008385 270.0803  89.9391 15.33829867243660
CZ-2C R/B               
1 52794U 22058K   25304.11169690  .00033630  00000+0  66089-3 0  9997
2 52794  50.1912 260.4605 0050537  20.7170 339.5830 15.45537586190030
GSLV R/B                
1 54149U 22138AN  25304.44636241  .00004201  00000+0  37311-3 0  9997
2 54149  87.3855 209.6256 0018922 260.9200  98.9890 14.95778747164601
XRISM                   
1 57800U 23137A   25304.52920669  .00008651  00000+0  51793-3 0  9996
2 57800  31.0025  37.9413 0008256 179.3091 180.7559 15.09677878118240
ACS3                    
1 59588U 24077B   25304.60974900  .00021833  00000+0  19903-1 0  9993
2 59588  97.3356 269.5411 0034822  31.0405 329.2803 13.82887462 76313
